STARLINK-32298          
1 61525U 24183S   26068.47073154  .00001822  00000+0  73648-4 0  9994
2 61525  53.1612 143.1144 0001257  88.4931 271.6213 15.30197754 79623
TEVEL2-5                
1 63214U 25052E   26068.96660006  .00021339  00000+0  71765-3 0  9991
2 63214  97.4013 325.3677 0004700  95.3936 264.7842 15.30817434 54919
